[{"OBJECT_NAME":"STARLINK-34748","OBJECT_ID":"2025-152G","EPOCH":"2026-03-09T13:53:52.242432","MEAN_MOTION":15.05633159,"ECCENTRICITY":0.0003972,"INCLINATION":97.5998,"RA_OF_ASC_NODE":285.4411,"ARG_OF_PERICENTER":100.2475,"MEAN_ANOMALY":259.92,"EPHEMERIS_TYPE":0,"CLASSIFICATION_TYPE":"U","NORAD_CAT_ID":64848,"ELEMENT_SET_NO":999,"REV_AT_EPOCH":3540,"BSTAR":-7.612e-7,"MEAN_MOTION_DOT":-7.2e-7,"MEAN_MOTION_DDOT":0},{"OBJECT_NAME":"PEGASUS DEB","OBJECT_ID":"1994-029AET","EPOCH":"2026-03-08T20:58:13.181952","MEAN_MOTION":14.33766801,"ECCENTRICITY":0.03416791,"INCLINATION":81.9646,"RA_OF_ASC_NODE":115.4043,"ARG_OF_PERICENTER":327.5056,"MEAN_ANOMALY":30.5491,"EPHEMERIS_TYPE":0,"CLASSIFICATION_TYPE":"U","NORAD_CAT_ID":39308,"ELEMENT_SET_NO":999,"REV_AT_EPOCH":66634,"BSTAR":0.0017314365,"MEAN_MOTION_DOT":9.329e-5,"MEAN_MOTION_DDOT":0}]
